0 COSMOS 2251 DEB
1 35278U 93036AJG 13281.76872815  .00003355  00000-0  11901-2 0  7263
2 35278 074.0565 179.3965 0082421 257.1309 159.2097 14.32955521232993
0 COSMOS 2251 DEB
1 35278U 93036AJG 13283.09754984  .00004661  00000-0  16493-2 0  7270
2 35278 074.0563 176.9715 0082221 254.3933 174.1453 14.32970812233192
0 COSMOS 2251 DEB
1 35278U 93036AJG 13284.16239887  .00004780  00000-0  16912-2 0  7288
2 35278 074.0566 175.0280 0081976 252.2377 267.3377 14.32976665233346
0 COSMOS 2251 DEB
1 35278U 93036AJG 13285.67298993  .00003846  00000-0  13624-2 0  7298
2 35278 074.0568 172.2718 0082029 249.0655 140.1240 14.32988503233550
0 COSMOS 2251 DEB
1 35278U 93036AJG 13288.05414475  .00006791  00000-0  23972-2 0  7309
2 35278 074.0570 167.9270 0081719 244.1360 184.0007 14.33007902233904
0 COSMOS 2251 DEB
1 35278U 93036AJG 13289.11894909  .00005837  00000-0  20620-2 0  7319
2 35278 074.0567 165.9841 0081626 241.8993 277.1973 14.33017268234054
0 COSMOS 2251 DEB
1 35278U 93036AJG 13290.63031054  .00005580  00000-0  19714-2 0  7320
2 35278 074.0561 163.2260 0081489 238.7420 154.1666 14.33031150234263
0 COSMOS 2251 DEB
1 35278U 93036AJG 13291.68221968  .00003944  00000-0  13963-2 0  7334
2 35278 074.0558 161.3064 0081396 236.5639 180.8917 14.33041494234419
0 COSMOS 2251 DEB
1 35278U 93036AJG 13293.09792258  .00004633  00000-0  16384-2 0  7343
2 35278 074.0555 158.7231 0081217 233.5591 284.5321 14.33050367234621
0 COSMOS 2251 DEB
1 35278U 93036AJG 13295.05372309  .00005531  00000-0  19534-2 0  7351
2 35278 074.0562 155.1530 0081188 229.4637 294.5775 14.33064529234904
